{"type":"FeatureCollection","features":[{"type":"Feature","properties":{"name":"Jalisco"},"geometry":{"type":"MultiPolygon","coordinates":[[[[-105.6944,20.4097],[-105.6866,20.3672],[-105.6562,20.3177],[-105.5902,20.2631],[-105.5848,20.2556],[-105.5857,20.2491],[-105.5792,20.24],[-105.582,20.2386],[-105.5805,20.2359],[-105.5755,20.2345],[-105.572,20.239],[-105.5627,20.2347],[-105.5555,20.2263],[-105.5428,20.1837],[-105.5481,20.1685],[-105.545,20.1037],[-105.5496,20.0946],[-105.4906,19.9891],[-105.4102,19.8816],[-105.3446,19.8049],[-105.3288,19.7761],[-105.3303,19.7664],[-105.3035,19.7422],[-105.2918,19.7253],[-105.2912,19.7201],[-105.2657,19.6984],[-105.2595,19.6859],[-105.2644,19.6793],[-105.2497,19.6715],[-105.2034,19.633],[-105.1987,19.6259],[-105.2013,19.6225],[-105.1832,19.6215],[-105.1627,19.612],[-105.1597,19.6076],[-105.1619,19.6037],[-105.1547,19.6046],[-105.1508,19.6012],[-105.1523,19.5871],[-105.1444,19.5833],[-105.1423,19.5751],[-105.1342,19.576],[-105.1328,19.5866],[-105.1195,19.5873],[-105.1089,19.5825],[-105.0974,19.5661],[-105.089,19.5605],[-105.0814,19.5318],[-105.0848,19.5291],[-105.0801,19.5201],[-105.0841,19.5155],[-105.0791,19.5136],[-105.083,19.5119],[-105.0796,19.5081],[-105.0815,19.5054],[-105.0719,19.4998],[-105.0669,19.5012],[-105.0658,19.4966],[-105.0607,19.4956],[-105.0666,19.4894],[-105.06,19.4836],[-105.0589,19.4809],[-105.062,19.48],[-105.0593,19.4795],[-105.0591,19.4716],[-105.0654,19.4736],[-105.0731,19.4711],[-105.056,19.4601],[-105.0525,19.4545],[-105.0441,19.4545],[-105.0461,19.4503],[-105.0418,19.4487],[-105.0424,19.4462],[-105.0325,19.4447],[-105.0305,19.4382],[-105.0248,19.4361],[-105.03,19.4289],[-105.0196,19.4208],[-105.0174,19.4073],[-105.0228,19.3938],[-105.0311,19.3966],[-105.0323,19.3889],[-105.0263,19.3821],[-105.0173,19.3796],[-104.9955,19.3634],[-104.9879,19.3525],[-104.9704,19.3414],[-104.966,19.333],[-104.9388,19.3137],[-104.9371,19.3087],[-104.9294,19.3081],[-104.91,19.2968],[-104.8831,19.2875],[-104.8741,19.2802],[-104.876,19.2776],[-104.8734,19.2762],[-104.8735,19.2841],[-104.8668,19.2893],[-104.8553,19.2909],[-104.8503,19.2882],[-104.8475,19.2904],[-104.847,19.2881],[-104.8397,19.2921],[-104.837,19.2896],[-104.8368,19.2951],[-104.8412,19.2999],[-104.8305,19.3075],[-104.8099,19.3042],[-104.7941,19.2951],[-104.789,19.2807],[-104.7996,19.2682],[-104.8008,19.2605],[-104.8055,19.2615],[-104.8095,19.2581],[-104.8066,19.2533],[-104.8092,19.2497],[-104.8085,19.2326],[-104.8029,19.2354],[-104.7974,19.2302],[-104.79,19.238],[-104.7786,19.2377],[-104.776,19.2404],[-104.7714,19.238],[-104.769,19.2307],[-104.7611,19.2319],[-104.7585,19.2287],[-104.7515,19.2376],[-104.7473,19.2357],[-104.739,19.2402],[-104.7327,19.2394],[-104.7294,19.2308],[-104.7359,19.2287],[-104.734,19.2217],[-104.7307,19.2229],[-104.7267,19.2191],[-104.7231,19.2214],[-104.7137,19.2159],[-104.7126,19.2219],[-104.7025,19.2221],[-104.6855,19.2068],[-104.6845,19.2009],[-104.686,19.1975],[-104.6913,19.1967],[-104.6914,19.1886],[-104.6973,19.1878],[-104.7014,19.1824],[-104.698,19.1762],[-104.6945,19.177],[-104.6926,19.1733],[-104.6889,19.1842],[-104.681,19.1837],[-104.6836,19.19],[-104.68,19.1932],[-104.6751,19.1855],[-104.6537,19.1826],[-104.6293,19.1729],[-104.626,19.1782],[-104.6188,19.1809],[-104.6153,19.1741],[-104.619,19.1677],[-104.6157,19.1617],[-104.6112,19.1607],[-104.6128,19.1555],[-104.5891,19.1504],[-104.5865,19.1634],[-104.5915,19.1617],[-104.5964,19.1645],[-104.5956,19.1711],[-104.6001,19.1787],[-104.59,19.1865],[-104.5867,19.1854],[-104.5833,19.1775],[-104.5769,19.1801],[-104.5748,19.193],[-104.5676,19.1991],[-104.5691,19.2187],[-104.5596,19.2201],[-104.5601,19.2292],[-104.5309,19.2594],[-104.5232,19.2605],[-104.5084,19.2441],[-104.5005,19.2529],[-104.4946,19.254],[-104.4884,19.2472],[-104.4889,19.2299],[-104.4832,19.2308],[-104.4777,19.2388],[-104.474,19.2365],[-104.472,19.2287],[-104.4632,19.2328],[-104.4672,19.2454],[-104.4558,19.2481],[-104.4597,19.254],[-104.4585,19.2584],[-104.4384,19.2629],[-104.4357,19.2702],[-104.4393,19.278],[-104.4238,19.2821],[-104.4174,19.2803],[-104.4124,19.2853],[-104.4009,19.2891],[-104.3974,19.2858],[-104.4025,19.2784],[-104.4013,19.2668],[-104.3956,19.2713],[-104.3843,19.272],[-104.3743,19.2819],[-104.3633,19.2753],[-104.3643,19.2698],[-104.3619,19.2691],[-104.3439,19.2895],[-104.331,19.2876],[-104.3225,19.2805],[-104.3148,19.2794],[-104.3106,19.2895],[-104.3001,19.296],[-104.2976,19.3027],[-104.2922,19.303],[-104.2836,19.297],[-104.2815,19.3028],[-104.2698,19.3019],[-104.2622,19.3074],[-104.2612,19.3118],[-104.2463,19.312],[-104.2184,19.299],[-104.2142,19.3024],[-104.2069,19.3],[-104.2043,19.3036],[-104.1917,19.2922],[-104.19,19.302],[-104.1796,19.3088],[-104.1798,19.3126],[-104.1698,19.313],[-104.1688,19.3077],[-104.1638,19.3082],[-104.1616,19.3027],[-104.1529,19.3152],[-104.1448,19.3112],[-104.1402,19.3162],[-104.136,19.3129],[-104.1322,19.3209],[-104.1299,19.3178],[-104.123,19.319],[-104.1255,19.3243],[-104.1216,19.3275],[-104.1247,19.3287],[-104.1333,19.3537],[-104.1203,19.3601],[-104.1188,19.3717],[-104.1096,19.3812],[-104.0902,19.393],[-104.0838,19.4156],[-104.0709,19.4352],[-104.0799,19.4318],[-104.0866,19.442],[-104.0767,19.4802],[-104.069,19.4843],[-104.0617,19.4977],[-104.0518,19.4976],[-104.0391,19.4847],[-104.0,19.4688],[-103.9977,19.4716],[-103.9882,19.4712],[-103.9871,19.4743],[-103.974,19.4746],[-103.9713,19.4626],[-103.9648,19.4542],[-103.8995,19.4345],[-103.898,19.4386],[-103.9088,19.4536],[-103.8893,19.4636],[-103.8794,19.4445],[-103.8638,19.4474],[-103.8565,19.4313],[-103.8352,19.4397],[-103.8241,19.4378],[-103.828,19.4327],[-103.8235,19.4272],[-103.8234,19.4169],[-103.8193,19.4087],[-103.8177,19.4124],[-103.7981,19.4218],[-103.7927,19.4275],[-103.7744,19.4305],[-103.7507,19.4457],[-103.7353,19.4434],[-103.7183,19.4535],[-103.7158,19.467],[-103.7083,19.4699],[-103.6988,19.4848],[-103.6934,19.4866],[-103.69,19.4924],[-103.6828,19.4931],[-103.6649,19.5026],[-103.6515,19.501],[-103.6183,19.5125],[-103.6062,19.5006],[-103.6148,19.494],[-103.6124,19.4856],[-103.6154,19.475],[-103.6015,19.4627],[-103.5867,19.444],[-103.5863,19.4395],[-103.5789,19.4355],[-103.5743,19.4116],[-103.5688,19.4062],[-103.5589,19.409],[-103.5562,19.407],[-103.5267,19.3728],[-103.5222,19.3578],[-103.5171,19.3571],[-103.5186,19.3546],[-103.5017,19.3449],[-103.4926,19.3465],[-103.4864,19.3379],[-103.4868,19.3274],[-103.4957,19.3198],[-103.4899,19.3107],[-103.4992,19.3085],[-103.501,19.2998],[-103.5092,19.2951],[-103.5062,19.2897],[-103.5089,19.2671],[-103.5053,19.2533],[-103.5099,19.2433],[-103.5057,19.2362],[-103.5066,19.2275],[-103.5141,19.218],[-103.5099,19.2137],[-103.5152,19.2114],[-103.5114,19.2068],[-103.5109,19.1997],[-103.4986,19.187],[-103.4976,19.1746],[-103.5031,19.1702],[-103.5021,19.1625],[-103.5092,19.156],[-103.514,19.1383],[-103.511,19.132],[-103.5196,19.1245],[-103.5236,19.1156],[-103.5207,19.1117],[-103.5211,19.102],[-103.5174,19.0988],[-103.5223,19.0928],[-103.5265,19.0787],[-103.5222,19.0767],[-103.5226,19.0662],[-103.5094,19.0576],[-103.5066,19.0494],[-103.5013,19.0487],[-103.4969,19.0417],[-103.497,19.0352],[-103.4909,19.0327],[-103.4885,19.0276],[-103.494,19.0218],[-103.4945,19.0147],[-103.4987,19.012],[-103.4939,19.0069],[-103.4908,18.9958],[-103.4899,18.9808],[-103.495,18.9707],[-103.4895,18.9687],[-103.4886,18.9649],[-103.4875,18.9716],[-103.482,18.9702],[-103.4837,18.9798],[-103.4791,18.9793],[-103.4778,18.9841],[-103.4721,18.9851],[-103.4727,18.9911],[-103.4631,18.977],[-103.4419,18.9835],[-103.4195,18.9813],[-103.415,18.9784],[-103.4166,18.9748],[-103.4114,18.9677],[-103.4072,18.9715],[-103.3997,18.9664],[-103.3944,18.9674],[-103.3861,18.9726],[-103.3842,18.9778],[-103.3772,18.9802],[-103.3731,18.9769],[-103.3632,18.9766],[-103.3553,18.9802],[-103.3325,18.9733],[-103.3048,18.9858],[-103.2994,18.9929],[-103.2896,18.9945],[-103.2878,18.9918],[-103.2822,18.9997],[-103.2777,18.9969],[-103.2718,19.0017],[-103.2598,19.0037],[-103.2579,19.0117],[-103.2405,19.014],[-103.2347,19.0201],[-103.2311,19.0183],[-103.2295,19.0227],[-103.2239,19.0241],[-103.2217,19.0095],[-103.2174,19.0035],[-103.2095,19.003],[-103.2114,18.993],[-103.2032,18.9785],[-103.2045,18.9676],[-103.1886,18.9549],[-103.1734,18.9363],[-103.1496,18.9259],[-103.1345,18.9311],[-103.125,18.9301],[-103.1236,18.9376],[-103.1082,18.9517],[-103.1052,18.9613],[-103.098,18.9647],[-103.0881,18.9841],[-103.0662,18.9963],[-103.0525,18.9981],[-103.0638,19.0057],[-103.0667,19.0223],[-103.0632,19.0279],[-103.0506,19.0356],[-103.0479,19.0322],[-103.0332,19.0291],[-103.0252,19.0531],[-103.0156,19.0489],[-102.9908,19.0534],[-103.016,19.0792],[-103.0195,19.1038],[-103.012,19.1092],[-103.0205,19.125],[-103.0197,19.1324],[-103.0045,19.1376],[-102.9834,19.1214],[-102.9776,19.1201],[-102.9794,19.1524],[-102.9743,19.1537],[-102.9627,19.1658],[-102.9601,19.1741],[-102.9555,19.1696],[-102.9523,19.1766],[-102.942,19.1771],[-102.9362,19.1736],[-102.9351,19.182],[-102.9274,19.1773],[-102.9151,19.1794],[-102.8864,19.2044],[-102.8654,19.2113],[-102.8626,19.2032],[-102.8456,19.199],[-102.8314,19.2146],[-102.8244,19.2057],[-102.8177,19.2091],[-102.8084,19.2233],[-102.7938,19.2254],[-102.7902,19.2425],[-102.7769,19.2436],[-102.7538,19.2558],[-102.7406,19.2483],[-102.7377,19.2422],[-102.7279,19.2424],[-102.7127,19.2358],[-102.7071,19.2383],[-102.7053,19.2471],[-102.6966,19.2488],[-102.6944,19.2374],[-102.6973,19.238],[-102.7007,19.2245],[-102.6939,19.2263],[-102.6699,19.2124],[-102.6683,19.221],[-102.6621,19.2188],[-102.6613,19.2286],[-102.6562,19.2287],[-102.6568,19.2325],[-102.6518,19.2355],[-102.6569,19.2405],[-102.6497,19.246],[-102.6512,19.2492],[-102.6483,19.2499],[-102.6456,19.2595],[-102.6382,19.2627],[-102.6431,19.2662],[-102.6403,19.2666],[-102.6389,19.273],[-102.6431,19.2783],[-102.6382,19.2951],[-102.6312,19.3045],[-102.6327,19.307],[-102.6299,19.3071],[-102.6261,19.3149],[-102.62,19.3152],[-102.6112,19.3228],[-102.6051,19.3385],[-102.6055,19.3493],[-102.6011,19.3645],[-102.5947,19.3712],[-102.588,19.3887],[-102.5826,19.3897],[-102.5688,19.4126],[-102.5768,19.4239],[-102.5707,19.4267],[-102.5651,19.4352],[-102.5556,19.4315],[-102.551,19.4254],[-102.5436,19.431],[-102.5466,19.4351],[-102.5525,19.4335],[-102.5592,19.4369],[-102.558,19.4396],[-102.5477,19.4395],[-102.5587,19.447],[-102.5682,19.4434],[-102.5633,19.4649],[-102.5558,19.4651],[-102.5548,19.4709],[-102.5483,19.4714],[-102.5427,19.478],[-102.5491,19.4924],[-102.5759,19.4981],[-102.5719,19.5112],[-102.5763,19.5159],[-102.5762,19.5249],[-102.5819,19.5283],[-102.584,19.5227],[-102.5985,19.5186],[-102.6205,19.4988],[-102.6289,19.5005],[-102.6575,19.4872],[-102.6709,19.4906],[-102.6688,19.4914],[-102.672,19.4946],[-102.673,19.512],[-102.6774,19.5103],[-102.6895,19.5134],[-102.7044,19.5072],[-102.7237,19.4932],[-102.732,19.496],[-102.7381,19.4934],[-102.7389,19.4987],[-102.7302,19.5068],[-102.731,19.5105],[-102.7272,19.5122],[-102.7246,19.5091],[-102.7223,19.5181],[-102.7175,19.5195],[-102.7184,19.5259],[-102.7146,19.5308],[-102.7167,19.5335],[-102.7107,19.5411],[-102.7116,19.5456],[-102.7184,19.5503],[-102.7135,19.5633],[-102.7196,19.5683],[-102.7168,19.5706],[-102.7206,19.5743],[-102.7204,19.5796],[-102.726,19.579],[-102.7224,19.5824],[-102.7266,19.5861],[-102.7185,19.5929],[-102.7159,19.6029],[-102.7203,19.6059],[-102.7188,19.6094],[-102.7259,19.6099],[-102.7261,19.6131],[-102.7372,19.6151],[-102.7476,19.6128],[-102.7554,19.6198],[-102.7537,19.6229],[-102.7609,19.6275],[-102.7758,19.6277],[-102.7796,19.6443],[-102.7823,19.6426],[-102.7821,19.6466],[-102.7875,19.6482],[-102.7842,19.6521],[-102.7926,19.6546],[-102.7912,19.6732],[-102.8057,19.6748],[-102.7976,19.6781],[-102.7955,19.6847],[-102.7906,19.6869],[-102.7922,19.6884],[-102.7822,19.6952],[-102.7805,19.7043],[-102.7922,19.7177],[-102.7958,19.7284],[-102.8108,19.741],[-102.8026,19.7466],[-102.8039,19.7522],[-102.8163,19.7499],[-102.8086,19.7596],[-102.8132,19.7664],[-102.8128,19.776],[-102.8195,19.7779],[-102.7923,19.8141],[-102.785,19.8154],[-102.7591,19.808],[-102.7552,19.814],[-102.7452,19.812],[-102.7394,19.8158],[-102.7452,19.828],[-102.7533,19.8341],[-102.7493,19.8345],[-102.7431,19.8446],[-102.7351,19.8473],[-102.7304,19.8532],[-102.7349,19.8604],[-102.7348,19.8745],[-102.7425,19.8788],[-102.7398,19.8858],[-102.7325,19.8904],[-102.7312,19.8995],[-102.7706,19.9299],[-102.784,19.9512],[-102.7753,19.9586],[-102.7769,19.9602],[-102.794,19.9503],[-102.803,19.9526],[-102.8057,19.9572],[-102.822,19.9646],[-102.8565,19.968],[-102.8614,19.9698],[-102.8598,19.9714],[-102.882,19.9758],[-102.8821,19.9696],[-102.9026,19.9669],[-102.9263,19.9842],[-102.9436,19.9841],[-102.9512,19.9966],[-102.9585,19.9954],[-102.9584,19.992],[-102.9626,19.9927],[-102.9633,19.9898],[-102.9685,19.9911],[-102.9938,19.9839],[-103.0045,19.9717],[-103.0122,19.9702],[-103.0108,19.967],[-103.0155,19.9598],[-103.0236,19.9624],[-103.0252,19.9605],[-103.0294,19.9674],[-103.0362,19.9694],[-103.0515,19.9916],[-103.0438,20.002],[-103.0482,20.0073],[-103.0326,20.0247],[-103.0357,20.0294],[-103.0244,20.0333],[-103.0285,20.0367],[-103.0265,20.0493],[-103.0207,20.0473],[-103.0216,20.0533],[-103.0244,20.0524],[-103.0247,20.0578],[-103.0308,20.0622],[-103.0305,20.0727],[-103.0338,20.0757],[-103.0307,20.0785],[-103.0417,20.0906],[-103.0328,20.1114],[-103.0354,20.1167],[-103.0426,20.1152],[-103.0442,20.1241],[-103.0313,20.1268],[-103.0352,20.1335],[-103.0325,20.1364],[-103.0048,20.1382],[-102.9984,20.126],[-102.9706,20.1254],[-102.9645,20.1271],[-102.9596,20.1412],[-102.9512,20.1382],[-102.942,20.1288],[-102.9264,20.1296],[-102.9245,20.1363],[-102.9432,20.1498],[-102.954,20.1666],[-102.9548,20.1713],[-102.9402,20.1717],[-102.9088,20.1622],[-102.9019,20.1655],[-102.8946,20.1642],[-102.8869,20.1588],[-102.8755,20.1576],[-102.866,20.1624],[-102.8625,20.1544],[-102.8523,20.1492],[-102.857,20.1443],[-102.855,20.1367],[-102.8461,20.1308],[-102.8407,20.1161],[-102.8375,20.1135],[-102.8352,20.1166],[-102.8243,20.108],[-102.8163,20.106],[-102.8073,20.1127],[-102.8019,20.123],[-102.8074,20.1332],[-102.8193,20.1372],[-102.7988,20.1418],[-102.7847,20.1376],[-102.7761,20.1384],[-102.7762,20.1419],[-102.7671,20.1487],[-102.7572,20.1534],[-102.7525,20.1486],[-102.7302,20.1666],[-102.7089,20.1683],[-102.6897,20.166],[-102.6797,20.1715],[-102.6789,20.1851],[-102.6853,20.2173],[-102.679,20.2269],[-102.6609,20.2315],[-102.6412,20.2235],[-102.6273,20.2294],[-102.6169,20.2479],[-102.621,20.2525],[-102.6134,20.2548],[-102.6148,20.263],[-102.6101,20.2691],[-102.5989,20.2671],[-102.5975,20.2617],[-102.5935,20.2625],[-102.5905,20.2585],[-102.5801,20.2644],[-102.5665,20.2657],[-102.5654,20.2702],[-102.5687,20.2747],[-102.5646,20.2782],[-102.5558,20.2714],[-102.5578,20.2636],[-102.555,20.2607],[-102.5441,20.2806],[-102.5359,20.279],[-102.5352,20.2722],[-102.5286,20.271],[-102.5201,20.2804],[-102.5222,20.2873],[-102.5301,20.2908],[-102.5305,20.2958],[-102.5208,20.3008],[-102.509,20.3014],[-102.5054,20.3159],[-102.4962,20.3079],[-102.4906,20.3086],[-102.4861,20.3201],[-102.4805,20.3252],[-102.4678,20.3306],[-102.4549,20.329],[-102.4545,20.3341],[-102.4478,20.3383],[-102.4346,20.341],[-102.4286,20.3398],[-102.4212,20.3327],[-102.41,20.3335],[-102.3998,20.3277],[-102.3912,20.334],[-102.3666,20.3277],[-102.3581,20.3371],[-102.3456,20.3351],[-102.3272,20.3494],[-102.3159,20.3446],[-102.3067,20.3581],[-102.2922,20.353],[-102.2936,20.3457],[-102.2898,20.3408],[-102.2837,20.3454],[-102.2672,20.3355],[-102.2609,20.3357],[-102.2591,20.3394],[-102.2536,20.3353],[-102.2383,20.3417],[-102.2218,20.3441],[-102.2196,20.3509],[-102.2119,20.3521],[-102.2081,20.3567],[-102.1961,20.3505],[-102.1755,20.356],[-102.1735,20.358],[-102.1774,20.3632],[-102.1766,20.3686],[-102.1582,20.3667],[-102.16,20.3749],[-102.1683,20.3787],[-102.1408,20.3754],[-102.1346,20.3757],[-102.1313,20.3811],[-102.1245,20.3782],[-102.1144,20.3815],[-102.1055,20.3787],[-102.0962,20.384],[-102.0969,20.3892],[-102.0905,20.3894],[-102.0845,20.405],[-102.0805,20.404],[-102.0774,20.4093],[-102.0709,20.409],[-102.0713,20.4145],[-102.0761,20.4153],[-102.0757,20.4192],[-102.0793,20.4214],[-102.0742,20.4244],[-102.0763,20.428],[-102.0678,20.4351],[-102.0662,20.4408],[-102.0576,20.4454],[-102.0563,20.452],[-102.044,20.4566],[-102.0453,20.4641],[-102.0427,20.4683],[-102.0451,20.4718],[-102.0421,20.4745],[-102.046,20.4826],[-102.038,20.4921],[-102.0282,20.4965],[-102.0286,20.5014],[-102.0207,20.5082],[-102.0188,20.5178],[-102.0101,20.5261],[-102.0087,20.5332],[-102.0141,20.5426],[-102.0031,20.5472],[-101.9956,20.5405],[-101.994,20.5443],[-101.9918,20.542],[-101.9879,20.5453],[-101.9884,20.5396],[-101.984,20.535],[-101.9789,20.5428],[-101.9739,20.5418],[-101.9753,20.5487],[-101.9693,20.5591],[-101.9699,20.5688],[-101.9628,20.5702],[-101.967,20.5793],[-101.9593,20.5868],[-101.958,20.5983],[-101.9511,20.6074],[-101.9587,20.6088],[-101.9571,20.6326],[-101.9641,20.6389],[-101.9712,20.6376],[-101.9679,20.6446],[-101.9702,20.658],[-101.9681,20.6636],[-101.9738,20.6643],[-101.9737,20.6607],[-101.9814,20.6575],[-101.9819,20.6633],[-101.9904,20.6609],[-101.9971,20.6647],[-102.0047,20.6603],[-102.0138,20.6644],[-102.0141,20.6712],[-102.0191,20.6762],[-102.0123,20.7107],[-102.0144,20.7171],[-102.0281,20.7198],[-102.0377,20.7174],[-102.0404,20.7232],[-102.0342,20.7355],[-102.0345,20.7421],[-102.0421,20.7405],[-102.0435,20.7374],[-102.0645,20.7387],[-102.061,20.7485],[-102.0736,20.7488],[-102.0723,20.7594],[-102.0656,20.7668],[-102.0676,20.7722],[-102.0736,20.7768],[-102.0761,20.7722],[-102.0789,20.7741],[-102.0811,20.7715],[-102.0825,20.7772],[-102.0959,20.7801],[-102.0871,20.8015],[-102.0799,20.8018],[-102.0813,20.8057],[-102.0762,20.8182],[-102.0799,20.8291],[-102.0737,20.8379],[-102.0644,20.8382],[-102.0529,20.8476],[-102.0386,20.8474],[-102.0218,20.8622],[-102.015,20.8695],[-102.0126,20.8783],[-102.0161,20.8783],[-102.018,20.8833],[-102.0084,20.8854],[-102.0033,20.8977],[-101.994,20.9077],[-101.9811,20.9148],[-101.9799,20.925],[-101.9631,20.9225],[-101.9579,20.9352],[-101.9439,20.9321],[-101.9421,20.9281],[-101.9389,20.9306],[-101.9371,20.9558],[-101.9332,20.9575],[-101.9348,20.9605],[-101.9311,20.9632],[-101.9314,20.9671],[-101.9222,20.9719],[-101.9257,20.978],[-101.9247,20.9832],[-101.9208,20.984],[-101.9087,20.9986],[-101.9101,21.005],[-101.9054,21.0118],[-101.9066,21.0288],[-101.9023,21.0321],[-101.8966,21.0478],[-101.9013,21.053],[-101.8945,21.0512],[-101.8929,21.0558],[-101.8749,21.0701],[-101.8778,21.0854],[-101.875,21.0929],[-101.8713,21.0953],[-101.8375,21.0968],[-101.8367,21.0998],[-101.828,21.1001],[-101.8177,21.107],[-101.8203,21.1187],[-101.8268,21.1221],[-101.8308,21.1194],[-101.8334,21.1373],[-101.8224,21.1359],[-101.8118,21.1412],[-101.8101,21.1485],[-101.8157,21.1495],[-101.8048,21.1585],[-101.804,21.1663],[-101.7873,21.1564],[-101.7811,21.1605],[-101.7837,21.1712],[-101.7807,21.1914],[-101.7744,21.1966],[-101.7712,21.2347],[-101.7659,21.2422],[-101.7546,21.2439],[-101.7682,21.2577],[-101.7594,21.2606],[-101.7597,21.2676],[-101.7496,21.272],[-101.7385,21.2692],[-101.7358,21.2773],[-101.7094,21.2807],[-101.7072,21.2765],[-101.702,21.2755],[-101.6977,21.2838],[-101.6867,21.2941],[-101.6762,21.2884],[-101.6629,21.2866],[-101.654,21.2959],[-101.6432,21.2993],[-101.6409,21.3147],[-101.6461,21.3258],[-101.6466,21.3381],[-101.6428,21.3551],[-101.6516,21.3653],[-101.6516,21.3696],[-101.6687,21.3809],[-101.6762,21.3898],[-101.6795,21.3895],[-101.6776,21.3951],[-101.6704,21.4023],[-101.6585,21.4068],[-101.6384,21.41],[-101.6309,21.4073],[-101.6188,21.4154],[-101.6066,21.415],[-101.6003,21.4205],[-101.5891,21.4151],[-101.5704,21.4185],[-101.5804,21.4283],[-101.5819,21.4478],[-101.5879,21.4424],[-101.59,21.4456],[-101.5901,21.4502],[-101.5867,21.4526],[-101.59,21.4568],[-101.589,21.4649],[-101.6324,21.5191],[-101.6403,21.5136],[-101.6413,21.5266],[-101.62,21.5411],[-101.6236,21.5454],[-101.6191,21.5461],[-101.6217,21.5519],[-101.6065,21.5639],[-101.6066,21.5749],[-101.6122,21.5753],[-101.6123,21.5829],[-101.6079,21.584],[-101.5958,21.6003],[-101.5953,21.61],[-101.586,21.6078],[-101.584,21.6212],[-101.5802,21.6255],[-101.5844,21.6311],[-101.5957,21.6331],[-101.5961,21.6371],[-101.589,21.652],[-101.5833,21.6567],[-101.5845,21.6622],[-101.5814,21.667],[-101.5848,21.6702],[-101.5691,21.6923],[-101.584,21.7096],[-101.5781,21.7119],[-101.5709,21.7043],[-101.5577,21.7351],[-101.5663,21.7334],[-101.5797,21.7364],[-101.5823,21.7727],[-101.5848,21.7716],[-101.5857,21.7788],[-101.5388,21.7773],[-101.5105,21.7991],[-101.5178,21.8148],[-101.5198,21.813],[-101.522,21.818],[-101.5298,21.8131],[-101.5278,21.8092],[-101.537,21.8105],[-101.5482,21.8341],[-101.5614,21.8361],[-101.566,21.842],[-101.5628,21.8554],[-101.5698,21.9171],[-101.5909,21.9154],[-101.5923,21.9096],[-101.5958,21.91],[-101.6115,21.9192],[-101.6167,21.9294],[-101.6209,21.9176],[-101.6289,21.9109],[-101.6507,21.9077],[-101.6496,21.9203],[-101.654,21.9242],[-101.6546,21.9306],[-101.6579,21.9298],[-101.6571,21.9393],[-101.6691,21.9458],[-101.6829,21.9629],[-101.7107,21.9739],[-101.7091,21.9799],[-101.7323,21.9951],[-101.73,22.0021],[-101.751,22.0146],[-101.7597,22.009],[-101.7776,22.0073],[-101.7772,22.0153],[-101.7844,22.0241],[-101.8043,22.0253],[-101.8014,22.031],[-101.8075,22.0232],[-101.8157,22.02],[-101.8617,22.0289],[-101.8611,22.0221],[-101.8583,22.021],[-101.8611,22.0211],[-101.8622,22.0147],[-101.8626,21.9914],[-101.8913,21.9766],[-101.8947,21.9897],[-101.9068,21.992],[-101.9126,21.9975],[-101.9094,21.989],[-101.9001,21.9867],[-101.8982,21.9833],[-101.8958,21.9633],[-101.8978,21.9584],[-101.8904,21.951],[-101.8858,21.9326],[-101.8818,21.9381],[-101.8846,21.9392],[-101.8727,21.9465],[-101.8353,21.9418],[-101.838,21.9073],[-101.8802,21.9101],[-102.02,21.8625],[-102.0208,21.8512],[-102.0384,21.8532],[-102.0417,21.8231],[-102.0551,21.8164],[-102.0529,21.8133],[-102.058,21.8019],[-102.0637,21.7977],[-102.072,21.7827],[-102.0831,21.7871],[-102.0946,21.7777],[-102.0862,21.7673],[-102.1021,21.761],[-102.1043,21.751],[-102.1159,21.7447],[-102.1156,21.736],[-102.1209,21.7364],[-102.1256,21.7257],[-102.1283,21.7267],[-102.1363,21.7205],[-102.1421,21.7054],[-102.1473,21.7058],[-102.1549,21.7],[-102.1666,21.7025],[-102.1664,21.706],[-102.1714,21.707],[-102.1779,21.6882],[-102.2143,21.6948],[-102.2142,21.6866],[-102.2185,21.6834],[-102.218,21.6777],[-102.2264,21.6578],[-102.2376,21.652],[-102.2509,21.6551],[-102.2752,21.654],[-102.2794,21.6644],[-102.304,21.6667],[-102.3026,21.6546],[-102.2954,21.6531],[-102.3101,21.6267],[-102.3211,21.6301],[-102.3257,21.6223],[-102.3669,21.6428],[-102.3695,21.6506],[-102.3851,21.652],[-102.4075,21.6595],[-102.4046,21.6656],[-102.4415,21.6734],[-102.4512,21.682],[-102.4539,21.681],[-102.4525,21.6784],[-102.4611,21.6793],[-102.4521,21.6869],[-102.4569,21.6981],[-102.4758,21.6949],[-102.4765,21.7021],[-102.5425,21.7326],[-102.541,21.7356],[-102.5525,21.7427],[-102.5963,21.744],[-102.5968,21.755],[-102.6012,21.7558],[-102.6063,21.7511],[-102.6181,21.7557],[-102.6335,21.7673],[-102.6435,21.7619],[-102.6509,21.7654],[-102.6596,21.7624],[-102.6689,21.7641],[-102.6788,21.7532],[-102.6907,21.7524],[-102.6973,21.7415],[-102.6963,21.7288],[-102.714,21.7301],[-102.7156,21.7341],[-102.7228,21.7191],[-102.7373,21.7156],[-102.7416,21.721],[-102.7453,21.7201],[-102.7665,21.6869],[-102.7763,21.6836],[-102.7861,21.6749],[-102.7918,21.677],[-102.7955,21.6759],[-102.798,21.6703],[-102.8053,21.6713],[-102.7952,21.6635],[-102.7734,21.6583],[-102.7735,21.6548],[-102.7836,21.6467],[-102.7776,21.6389],[-102.7754,21.6216],[-102.7675,21.6084],[-102.7647,21.5961],[-102.7374,21.5868],[-102.7353,21.5911],[-102.7295,21.5931],[-102.7171,21.5713],[-102.6951,21.5729],[-102.6923,21.5631],[-102.6971,21.5515],[-102.6964,21.543],[-102.6922,21.5421],[-102.6893,21.5449],[-102.6652,21.5399],[-102.6596,21.5336],[-102.642,21.5359],[-102.6307,21.534],[-102.6312,21.5279],[-102.6422,21.5187],[-102.6248,21.5014],[-102.6322,21.4969],[-102.6381,21.4827],[-102.6343,21.4817],[-102.6367,21.4771],[-102.6397,21.477],[-102.6389,21.4813],[-102.6427,21.4761],[-102.6491,21.4742],[-102.6479,21.4625],[-102.6361,21.4629],[-102.6445,21.4498],[-102.655,21.4466],[-102.6503,21.442],[-102.6552,21.4392],[-102.6511,21.4369],[-102.6543,21.4356],[-102.6548,21.4322],[-102.6517,21.4319],[-102.6533,21.4216],[-102.6573,21.4222],[-102.6521,21.4122],[-102.6597,21.4109],[-102.6522,21.4075],[-102.6557,21.4024],[-102.6493,21.4],[-102.6468,21.3942],[-102.6381,21.3932],[-102.6428,21.3881],[-102.6404,21.382],[-102.6424,21.3677],[-102.6512,21.3636],[-102.6778,21.3409],[-102.6818,21.3392],[-102.6844,21.3431],[-102.6941,21.3407],[-102.6983,21.3433],[-102.7019,21.3638],[-102.7141,21.3806],[-102.7206,21.3811],[-102.7243,21.3867],[-102.7291,21.3874],[-102.7293,21.3744],[-102.7327,21.3692],[-102.728,21.3571],[-102.7405,21.3466],[-102.751,21.3457],[-102.7578,21.3392],[-102.7593,21.3354],[-102.7552,21.331],[-102.7589,21.3275],[-102.7553,21.3232],[-102.7718,21.316],[-102.7837,21.3295],[-102.7889,21.3295],[-102.7985,21.3069],[-102.8057,21.3202],[-102.812,21.3237],[-102.8176,21.3185],[-102.8177,21.2997],[-102.8152,21.2947],[-102.8371,21.3034],[-102.8442,21.294],[-102.8488,21.2932],[-102.8508,21.2814],[-102.8448,21.2773],[-102.8594,21.2705],[-102.8588,21.2665],[-102.8639,21.2607],[-102.8613,21.2556],[-102.8635,21.253],[-102.8729,21.2552],[-102.8714,21.2473],[-102.8766,21.2366],[-102.8837,21.2418],[-102.8864,21.2354],[-102.8918,21.2376],[-102.8917,21.2335],[-102.8987,21.2375],[-102.903,21.2352],[-102.9022,21.2283],[-102.9098,21.2206],[-102.9107,21.2052],[-102.9478,21.2146],[-102.9496,21.2268],[-102.9463,21.2344],[-102.9519,21.2341],[-102.9519,21.2316],[-102.9591,21.2336],[-102.968,21.2417],[-102.979,21.2397],[-102.9793,21.2465],[-102.9868,21.2494],[-102.9895,21.2567],[-102.9969,21.2597],[-103.0112,21.2554],[-103.0116,21.2456],[-103.017,21.241],[-103.0265,21.2421],[-103.0298,21.2511],[-103.0401,21.248],[-103.0459,21.2494],[-103.0477,21.2556],[-103.0434,21.2604],[-103.0449,21.2624],[-103.0528,21.2626],[-103.0655,21.2558],[-103.057,21.2468],[-103.0681,21.2351],[-103.0775,21.2154],[-103.0771,21.2122],[-103.0692,21.2099],[-103.0843,21.1941],[-103.0836,21.1821],[-103.0714,21.1529],[-103.0781,21.14],[-103.0956,21.133],[-103.0985,21.1285],[-103.0917,21.1158],[-103.085,21.1147],[-103.0846,21.1105],[-103.0737,21.11],[-103.077,21.102],[-103.0758,21.0969],[-103.0663,21.0997],[-103.0652,21.1043],[-103.0633,21.1006],[-103.0565,21.0993],[-103.0774,21.0724],[-103.0828,21.0719],[-103.09,21.0651],[-103.105,21.062],[-103.1144,21.0679],[-103.1233,21.0668],[-103.1215,21.0624],[-103.1273,21.0535],[-103.1413,21.0611],[-103.1432,21.0657],[-103.1501,21.0651],[-103.1524,21.0693],[-103.1629,21.0729],[-103.1624,21.0698],[-103.1661,21.0692],[-103.1702,21.0724],[-103.1788,21.0719],[-103.1801,21.0746],[-103.1884,21.0707],[-103.187,21.0744],[-103.1917,21.0793],[-103.1884,21.0852],[-103.2017,21.0859],[-103.2052,21.0926],[-103.2096,21.0942],[-103.22,21.0856],[-103.2274,21.0849],[-103.2326,21.0791],[-103.2378,21.0786],[-103.2435,21.0841],[-103.2524,21.081],[-103.2552,21.0846],[-103.2582,21.0831],[-103.2617,21.0746],[-103.2572,21.0707],[-103.2757,21.0514],[-103.2791,21.0565],[-103.2966,21.0648],[-103.3019,21.0546],[-103.307,21.0575],[-103.3167,21.0541],[-103.3303,21.0545],[-103.335,21.0426],[-103.3402,21.0422],[-103.344,21.0462],[-103.3531,21.0453],[-103.3608,21.0513],[-103.369,21.052],[-103.3684,21.0567],[-103.3766,21.0659],[-103.3855,21.0674],[-103.3879,21.0792],[-103.396,21.0803],[-103.3965,21.0901],[-103.393,21.0911],[-103.3961,21.0987],[-103.4014,21.0998],[-103.4012,21.103],[-103.4183,21.1152],[-103.4232,21.1252],[-103.4163,21.1373],[-103.4257,21.139],[-103.4286,21.1467],[-103.4348,21.1421],[-103.4452,21.141],[-103.4498,21.1439],[-103.4693,21.1434],[-103.4754,21.1373],[-103.5041,21.1277],[-103.5102,21.1378],[-103.511,21.1462],[-103.5187,21.1417],[-103.5315,21.142],[-103.5331,21.1385],[-103.5298,21.1341],[-103.5411,21.1263],[-103.5503,21.125],[-103.5545,21.1209],[-103.5537,21.1167],[-103.5571,21.1198],[-103.5652,21.1179],[-103.5669,21.1208],[-103.569,21.1167],[-103.5731,21.1216],[-103.5773,21.1215],[-103.5805,21.1273],[-103.5917,21.1286],[-103.602,21.1517],[-103.6136,21.1562],[-103.6114,21.1787],[-103.6182,21.1835],[-103.6161,21.1857],[-103.6186,21.1888],[-103.6248,21.1933],[-103.6334,21.1913],[-103.6371,21.1997],[-103.6606,21.2155],[-103.6673,21.216],[-103.664,21.2182],[-103.6634,21.2242],[-103.6402,21.2221],[-103.6363,21.2417],[-103.6397,21.2434],[-103.6417,21.254],[-103.6374,21.2691],[-103.6395,21.2775],[-103.634,21.2823],[-103.6427,21.2845],[-103.6582,21.2804],[-103.6667,21.2905],[-103.6763,21.2834],[-103.6899,21.2854],[-103.6981,21.2826],[-103.7108,21.2745],[-103.7136,21.2667],[-103.7203,21.2752],[-103.7199,21.2831],[-103.7221,21.2839],[-103.7208,21.308],[-103.7109,21.3135],[-103.7111,21.3177],[-103.7051,21.3255],[-103.6914,21.3201],[-103.6774,21.3199],[-103.6717,21.3225],[-103.6636,21.3381],[-103.6489,21.3374],[-103.6498,21.3418],[-103.6462,21.3444],[-103.6431,21.3417],[-103.6381,21.3449],[-103.6344,21.3401],[-103.629,21.3454],[-103.6187,21.3445],[-103.6169,21.3534],[-103.6112,21.3488],[-103.603,21.3491],[-103.5981,21.3419],[-103.5887,21.3422],[-103.5785,21.3302],[-103.5686,21.3376],[-103.5676,21.3522],[-103.5626,21.3527],[-103.5574,21.3481],[-103.5354,21.3539],[-103.5233,21.352],[-103.5194,21.3565],[-103.51,21.3549],[-103.5131,21.3641],[-103.5039,21.3768],[-103.5082,21.3803],[-103.5094,21.3924],[-103.5218,21.4014],[-103.5218,21.4057],[-103.5336,21.4206],[-103.5386,21.4448],[-103.5439,21.4373],[-103.5483,21.4405],[-103.5529,21.4361],[-103.5584,21.4362],[-103.5604,21.4302],[-103.5677,21.4393],[-103.5759,21.4362],[-103.576,21.4286],[-103.5815,21.4275],[-103.5871,21.4079],[-103.5864,21.3924],[-103.5927,21.3936],[-103.5953,21.3909],[-103.601,21.3939],[-103.6003,21.3982],[-103.6098,21.4072],[-103.6229,21.4131],[-103.6243,21.4203],[-103.6193,21.424],[-103.6262,21.4293],[-103.6265,21.4345],[-103.6342,21.4393],[-103.6492,21.4386],[-103.6503,21.4346],[-103.6608,21.4416],[-103.6647,21.4549],[-103.6587,21.4637],[-103.7015,21.4663],[-103.6932,21.479],[-103.6943,21.4902],[-103.6918,21.4956],[-103.6849,21.5015],[-103.6726,21.5055],[-103.6754,21.5108],[-103.6798,21.5112],[-103.6816,21.5205],[-103.6945,21.5289],[-103.6935,21.5325],[-103.6863,21.5351],[-103.6898,21.5524],[-103.6832,21.5577],[-103.6736,21.5549],[-103.6664,21.558],[-103.6583,21.5559],[-103.66,21.5648],[-103.6449,21.5765],[-103.6298,21.5734],[-103.6213,21.5646],[-103.6216,21.5581],[-103.619,21.5569],[-103.5929,21.5592],[-103.5967,21.5655],[-103.5933,21.5759],[-103.5948,21.5817],[-103.5905,21.5898],[-103.582,21.5892],[-103.58,21.5842],[-103.5742,21.5849],[-103.5589,21.5764],[-103.5547,21.5766],[-103.5524,21.5839],[-103.5452,21.5876],[-103.5504,21.597],[-103.5506,21.6134],[-103.5556,21.6254],[-103.5555,21.6341],[-103.5522,21.6458],[-103.547,21.6507],[-103.5408,21.6653],[-103.5267,21.6756],[-103.5266,21.687],[-103.5179,21.7115],[-103.5098,21.713],[-103.5078,21.7197],[-103.5101,21.7215],[-103.5107,21.737],[-103.5085,21.7397],[-103.5279,21.7723],[-103.5433,21.7711],[-103.5538,21.7798],[-103.5608,21.7803],[-103.5626,21.7857],[-103.5659,21.7848],[-103.5694,21.7892],[-103.5679,21.7971],[-103.5726,21.8035],[-103.5548,21.8009],[-103.5261,21.8051],[-103.5314,21.8178],[-103.5028,21.8331],[-103.4956,21.8235],[-103.4827,21.8174],[-103.4825,21.8133],[-103.4705,21.8135],[-103.4751,21.8266],[-103.4724,21.836],[-103.4667,21.84],[-103.4554,21.8328],[-103.4572,21.8385],[-103.4497,21.8481],[-103.4513,21.8539],[-103.4393,21.8646],[-103.4354,21.8761],[-103.4258,21.891],[-103.4225,21.8911],[-103.4217,21.8953],[-103.4139,21.9006],[-103.4139,21.9055],[-103.4084,21.9076],[-103.4051,21.9018],[-103.3943,21.8967],[-103.3893,21.8988],[-103.3897,21.9058],[-103.3748,21.9137],[-103.3441,21.9135],[-103.3414,21.9404],[-103.3324,21.9432],[-103.3183,21.9561],[-103.3101,21.9591],[-103.3092,21.9663],[-103.2786,21.9897],[-103.2733,21.979],[-103.2647,21.9718],[-103.2448,21.9666],[-103.2414,21.9708],[-103.2468,21.9759],[-103.24,21.9767],[-103.224,21.9718],[-103.2215,21.968],[-103.2056,21.9652],[-103.1926,21.9699],[-103.1918,21.9744],[-103.1921,21.9793],[-103.1982,21.9846],[-103.194,21.9901],[-103.2021,21.9934],[-103.2017,21.9986],[-103.1967,22.0009],[-103.1907,21.9979],[-103.1657,21.9968],[-103.1596,22.0006],[-103.1601,22.0032],[-103.1437,22.008],[-103.138,22.003],[-103.1328,22.003],[-103.1209,22.0152],[-103.1115,22.0143],[-103.1091,22.029],[-103.1141,22.0391],[-103.1085,22.0392],[-103.1062,22.047],[-103.1079,22.0634],[-103.1444,22.0679],[-103.1543,22.0722],[-103.1528,22.0876],[-103.1351,22.0905],[-103.135,22.0976],[-103.1256,22.1048],[-103.1017,22.1018],[-103.101,22.1078],[-103.0961,22.1114],[-103.0924,22.1099],[-103.0883,22.1129],[-103.0895,22.1152],[-103.0862,22.1122],[-103.0845,22.114],[-103.0877,22.1178],[-103.077,22.1255],[-103.0765,22.1278],[-103.0816,22.1301],[-103.0759,22.1332],[-103.0788,22.1371],[-103.0901,22.14],[-103.0907,22.1435],[-103.0959,22.1455],[-103.1088,22.1443],[-103.1025,22.1536],[-103.1087,22.1534],[-103.1049,22.1575],[-103.1059,22.1682],[-103.1014,22.1786],[-103.1061,22.1914],[-103.0921,22.1984],[-103.0882,22.2044],[-103.071,22.2035],[-103.0719,22.212],[-103.0598,22.2172],[-103.0548,22.2138],[-103.0523,22.2207],[-103.0597,22.2242],[-103.0578,22.2283],[-103.0621,22.2283],[-103.0555,22.2473],[-103.0629,22.2493],[-103.0624,22.2522],[-103.0683,22.2551],[-103.0783,22.2571],[-103.0838,22.2634],[-103.083,22.2771],[-103.0872,22.2784],[-103.0911,22.2859],[-103.0981,22.2863],[-103.101,22.294],[-103.1401,22.2937],[-103.1547,22.2984],[-103.1647,22.2971],[-103.1651,22.2948],[-103.1906,22.2985],[-103.2019,22.2803],[-103.2144,22.2775],[-103.2206,22.2805],[-103.2223,22.2831],[-103.2184,22.29],[-103.2204,22.2964],[-103.2096,22.3146],[-103.2127,22.3191],[-103.2095,22.3202],[-103.2082,22.3331],[-103.1941,22.332],[-103.1827,22.3429],[-103.1789,22.3426],[-103.1686,22.3546],[-103.1704,22.3618],[-103.1664,22.3706],[-103.174,22.3778],[-103.1705,22.3789],[-103.1686,22.385],[-103.1779,22.3867],[-103.1813,22.3904],[-103.1894,22.3902],[-103.1988,22.3806],[-103.2053,22.4005],[-103.2039,22.4041],[-103.2134,22.4101],[-103.2209,22.4096],[-103.2321,22.3934],[-103.235,22.3971],[-103.2522,22.3989],[-103.2602,22.4119],[-103.2749,22.4096],[-103.2852,22.4142],[-103.2856,22.4056],[-103.3005,22.393],[-103.3053,22.3904],[-103.3092,22.392],[-103.3095,22.3983],[-103.3146,22.4049],[-103.3234,22.3891],[-103.3293,22.3845],[-103.3396,22.3855],[-103.3481,22.3795],[-103.3474,22.3755],[-103.3531,22.3694],[-103.3647,22.3695],[-103.3667,22.351],[-103.3626,22.3364],[-103.343,22.3351],[-103.3494,22.3259],[-103.3596,22.3206],[-103.3638,22.3145],[-103.3501,22.3075],[-103.3557,22.2798],[-103.3384,22.2875],[-103.3277,22.3074],[-103.3069,22.3063],[-103.2978,22.2983],[-103.3078,22.2817],[-103.3053,22.2657],[-103.3139,22.2587],[-103.2971,22.2572],[-103.2951,22.2533],[-103.3119,22.2333],[-103.3377,22.2452],[-103.3497,22.2392],[-103.3618,22.2392],[-103.3697,22.2313],[-103.383,22.227],[-103.384,22.222],[-103.3802,22.219],[-103.3857,22.2125],[-103.409,22.2154],[-103.4172,22.1905],[-103.4341,22.1908],[-103.4305,22.1825],[-103.4253,22.1826],[-103.4197,22.1775],[-103.4253,22.1765],[-103.4292,22.1622],[-103.4259,22.1394],[-103.4321,22.1316],[-103.4346,22.1329],[-103.4363,22.1269],[-103.4383,22.1289],[-103.4395,22.1176],[-103.4456,22.1135],[-103.4549,22.1153],[-103.4617,22.1111],[-103.4592,22.1059],[-103.4732,22.1055],[-103.4733,22.1112],[-103.4793,22.1148],[-103.4861,22.1106],[-103.4861,22.1065],[-103.4956,22.1105],[-103.4968,22.1068],[-103.5016,22.1056],[-103.5159,22.1099],[-103.5179,22.1209],[-103.5146,22.1291],[-103.5306,22.1268],[-103.534,22.1211],[-103.5427,22.1206],[-103.5507,22.1306],[-103.5502,22.1357],[-103.5601,22.1366],[-103.5669,22.1361],[-103.58,22.1268],[-103.5774,22.12],[-103.5811,22.1049],[-103.5853,22.1094],[-103.594,22.1116],[-103.6048,22.1016],[-103.6047,22.0979],[-103.6204,22.0985],[-103.6285,22.1063],[-103.6361,22.1064],[-103.648,22.1005],[-103.6539,22.104],[-103.6623,22.103],[-103.6701,22.1085],[-103.6838,22.1092],[-103.6859,22.1141],[-103.6783,22.1154],[-103.6774,22.1187],[-103.6903,22.1301],[-103.682,22.1352],[-103.6761,22.1488],[-103.6545,22.1719],[-103.6589,22.1752],[-103.6578,22.1838],[-103.6525,22.1872],[-103.6491,22.2021],[-103.6411,22.2098],[-103.6309,22.2389],[-103.6028,22.27],[-103.5949,22.2731],[-103.6009,22.2782],[-103.6192,22.2818],[-103.6285,22.294],[-103.6378,22.2952],[-103.6447,22.315],[-103.6382,22.3352],[-103.6421,22.3409],[-103.635,22.3435],[-103.612,22.338],[-103.6048,22.3401],[-103.6026,22.3463],[-103.6095,22.3527],[-103.6107,22.3598],[-103.6028,22.3609],[-103.5976,22.3745],[-103.5928,22.3893],[-103.594,22.4072],[-103.5784,22.4105],[-103.571,22.4182],[-103.5607,22.4228],[-103.5592,22.4284],[-103.5677,22.4378],[-103.5725,22.4375],[-103.5689,22.4463],[-103.5699,22.4556],[-103.5739,22.4611],[-103.5708,22.4692],[-103.5806,22.4774],[-103.5825,22.4888],[-103.5791,22.491],[-103.5793,22.4962],[-103.5946,22.5054],[-103.589,22.5081],[-103.5837,22.522],[-103.5853,22.5253],[-103.5993,22.5264],[-103.6048,22.5384],[-103.603,22.5435],[-103.606,22.5457],[-103.6028,22.5568],[-103.6224,22.5636],[-103.6462,22.5548],[-103.6516,22.5565],[-103.661,22.5471],[-103.6726,22.5611],[-103.6818,22.5548],[-103.7115,22.5645],[-103.7266,22.5741],[-103.7385,22.572],[-103.7445,22.5585],[-103.7531,22.5579],[-103.7592,22.5517],[-103.76,22.5556],[-103.7691,22.5558],[-103.7739,22.5464],[-103.7774,22.5249],[-103.7857,22.5105],[-103.7836,22.5098],[-103.7838,22.4888],[-103.787,22.4778],[-103.7956,22.465],[-103.8102,22.4273],[-103.8101,22.4127],[-103.8133,22.4055],[-103.8087,22.3987],[-103.813,22.3839],[-103.8112,22.3767],[-103.8279,22.3542],[-103.8375,22.352],[-103.8454,22.3428],[-103.846,22.3303],[-103.8286,22.2866],[-103.8398,22.2663],[-103.8449,22.2626],[-103.8423,22.2503],[-103.8441,22.2221],[-103.8578,22.1882],[-103.8629,22.1669],[-103.8731,22.1784],[-103.8769,22.1921],[-103.8851,22.1964],[-103.8811,22.2061],[-103.8861,22.2262],[-103.9017,22.2371],[-103.9077,22.2546],[-103.9179,22.262],[-103.9118,22.2705],[-103.9142,22.2782],[-103.9101,22.2833],[-103.916,22.2885],[-103.9134,22.2922],[-103.916,22.2927],[-103.914,22.3009],[-103.9189,22.3044],[-103.9158,22.3113],[-103.921,22.3143],[-103.9204,22.3223],[-103.9237,22.3239],[-103.9225,22.3272],[-103.9261,22.3321],[-103.92,22.3356],[-103.9213,22.3479],[-103.9118,22.3523],[-103.9079,22.3621],[-103.8957,22.3641],[-103.8987,22.3796],[-103.8912,22.3836],[-103.8925,22.388],[-103.8835,22.39],[-103.8862,22.4002],[-103.8693,22.4013],[-103.8669,22.4094],[-103.866,22.4152],[-103.873,22.416],[-103.8737,22.4191],[-103.8806,22.4182],[-103.8732,22.4248],[-103.8947,22.4382],[-103.8902,22.4418],[-103.8761,22.4412],[-103.8784,22.4514],[-103.8829,22.4546],[-103.8818,22.4688],[-103.8848,22.469],[-103.8854,22.4735],[-103.8821,22.4772],[-103.8761,22.472],[-103.8711,22.4725],[-103.864,22.4914],[-103.8642,22.5135],[-103.8752,22.5216],[-103.8715,22.5382],[-103.8647,22.5394],[-103.8669,22.5447],[-103.8542,22.5494],[-103.8518,22.5536],[-103.8607,22.5676],[-103.8579,22.5665],[-103.8524,22.5776],[-103.8252,22.588],[-103.8196,22.5956],[-103.7735,22.6115],[-103.761,22.6256],[-103.7652,22.6295],[-103.7685,22.6433],[-103.7587,22.6584],[-103.7636,22.6627],[-103.7632,22.677],[-103.7513,22.695],[-103.7521,22.7122],[-103.7557,22.7152],[-103.7548,22.7195],[-103.7691,22.7204],[-103.7711,22.7324],[-103.7747,22.7339],[-103.7814,22.7298],[-103.8056,22.7316],[-103.8192,22.7283],[-103.8216,22.734],[-103.8266,22.7349],[-103.8295,22.7309],[-103.8327,22.7336],[-103.8362,22.728],[-103.8385,22.7318],[-103.8546,22.7297],[-103.858,22.7333],[-103.8655,22.7354],[-103.8678,22.7324],[-103.8751,22.7372],[-103.8911,22.7352],[-103.8983,22.7283],[-103.9034,22.7309],[-103.9025,22.7384],[-103.9093,22.7501],[-103.9314,22.7452],[-103.9404,22.7502],[-103.9467,22.7457],[-103.968,22.7469],[-103.972,22.7416],[-103.9743,22.747],[-103.9891,22.7418],[-103.9889,22.7465],[-103.9919,22.748],[-104.0078,22.7443],[-104.013,22.7476],[-104.0278,22.7417],[-104.037,22.7296],[-104.0558,22.7238],[-104.0476,22.7113],[-104.0511,22.7077],[-104.064,22.7069],[-104.0572,22.6948],[-104.0599,22.6913],[-104.069,22.7011],[-104.0724,22.7009],[-104.0732,22.6941],[-104.0612,22.6878],[-104.049,22.6871],[-104.0465,22.6812],[-104.0544,22.6784],[-104.0465,22.6768],[-104.0433,22.6719],[-104.0337,22.6706],[-104.0307,22.679],[-104.0155,22.6688],[-104.0195,22.6526],[-104.0248,22.653],[-104.0277,22.6395],[-104.0333,22.6341],[-104.0259,22.6242],[-104.027,22.6132],[-104.0181,22.597],[-103.9964,22.5908],[-103.9862,22.5909],[-103.9833,22.5855],[-103.99,22.5825],[-103.9902,22.573],[-104.0008,22.5668],[-103.9939,22.5645],[-103.9907,22.557],[-103.9839,22.5541],[-103.9822,22.5495],[-103.9723,22.5451],[-103.9801,22.5406],[-103.9989,22.5436],[-104.0056,22.5366],[-103.9998,22.5308],[-103.9872,22.5288],[-103.9913,22.5233],[-103.9803,22.519],[-103.9806,22.5151],[-103.9779,22.5168],[-103.9752,22.5135],[-103.9743,22.5162],[-103.9662,22.5172],[-103.9631,22.515],[-103.9634,22.508],[-103.9564,22.5046],[-103.95,22.5089],[-103.9499,22.5029],[-103.9456,22.5041],[-103.9407,22.4994],[-103.9344,22.4999],[-103.9381,22.4954],[-103.9331,22.4891],[-103.9398,22.4889],[-103.9294,22.4761],[-103.9315,22.4736],[-103.9347,22.4766],[-103.9378,22.4752],[-103.9334,22.4712],[-103.9385,22.4697],[-103.938,22.4628],[-103.9493,22.4618],[-103.9587,22.4511],[-103.9606,22.4332],[-103.9756,22.4362],[-103.9765,22.4273],[-103.985,22.4231],[-103.9864,22.4148],[-103.9928,22.4105],[-104.0059,22.4087],[-104.0033,22.3899],[-104.0127,22.3785],[-104.0151,22.3648],[-104.0232,22.3645],[-104.0293,22.3711],[-104.0488,22.3764],[-104.0675,22.3614],[-104.0753,22.3644],[-104.0834,22.3579],[-104.0942,22.355],[-104.0973,22.3578],[-104.0972,22.3715],[-104.0922,22.3784],[-104.0886,22.3789],[-104.088,22.3746],[-104.0844,22.3745],[-104.0769,22.3796],[-104.0755,22.3837],[-104.081,22.3898],[-104.0762,22.3988],[-104.0768,22.4072],[-104.0713,22.4222],[-104.0665,22.4269],[-104.0616,22.4258],[-104.0636,22.4413],[-104.0586,22.4435],[-104.0577,22.4476],[-104.0622,22.4513],[-104.0516,22.4667],[-104.0566,22.4928],[-104.0717,22.503],[-104.0694,22.509],[-104.0742,22.5157],[-104.0687,22.522],[-104.0772,22.5318],[-104.1027,22.5314],[-104.1066,22.5233],[-104.1204,22.5175],[-104.1126,22.5092],[-104.1135,22.4966],[-104.1213,22.4967],[-104.1246,22.5025],[-104.1431,22.5047],[-104.1498,22.5097],[-104.1504,22.5163],[-104.1566,22.5152],[-104.1584,22.5093],[-104.1632,22.5144],[-104.1706,22.5072],[-104.1781,22.5053],[-104.1902,22.5076],[-104.1951,22.5037],[-104.1937,22.4998],[-104.2017,22.487],[-104.2088,22.4834],[-104.2148,22.4842],[-104.1989,22.4805],[-104.2049,22.4719],[-104.1973,22.4771],[-104.1952,22.4729],[-104.1932,22.4754],[-104.1883,22.4701],[-104.19,22.4683],[-104.1857,22.4714],[-104.1876,22.4682],[-104.185,22.4646],[-104.1957,22.4622],[-104.1999,22.4563],[-104.1951,22.4476],[-104.1901,22.4461],[-104.1796,22.4501],[-104.1751,22.4468],[-104.1751,22.4425],[-104.1675,22.4452],[-104.1761,22.4317],[-104.1738,22.4295],[-104.1789,22.4274],[-104.1744,22.4208],[-104.1737,22.4083],[-104.1683,22.4049],[-104.1647,22.3916],[-104.1674,22.3874],[-104.1777,22.3896],[-104.193,22.3991],[-104.207,22.4217],[-104.2207,22.4211],[-104.23,22.4145],[-104.241,22.4128],[-104.2544,22.3925],[-104.253,22.3866],[-104.2583,22.3847],[-104.2593,22.3781],[-104.2551,22.3733],[-104.2547,22.3488],[-104.2738,22.3428],[-104.2856,22.3457],[-104.2927,22.344],[-104.2984,22.3478],[-104.293,22.3307],[-104.2993,22.3258],[-104.2927,22.32],[-104.2926,22.3074],[-104.2848,22.3027],[-104.2849,22.2971],[-104.2898,22.2936],[-104.2888,22.2856],[-104.2924,22.285],[-104.2956,22.2769],[-104.3001,22.2759],[-104.3067,22.265],[-104.3224,22.2538],[-104.3287,22.2454],[-104.3259,22.2318],[-104.332,22.2284],[-104.3339,22.2158],[-104.3414,22.2096],[-104.3318,22.1998],[-104.3361,22.1942],[-104.3366,22.1867],[-104.3506,22.1759],[-104.3494,22.1698],[-104.3563,22.1654],[-104.3546,22.1512],[-104.3616,22.1367],[-104.3647,22.1124],[-104.3732,22.1026],[-104.3635,22.0741],[-104.3615,22.0529],[-104.3684,22.0455],[-104.3654,22.0362],[-104.369,22.0246],[-104.3601,22.0148],[-104.3677,21.9975],[-104.3674,21.9868],[-104.3712,21.976],[-104.3669,21.9724],[-104.3651,21.9744],[-104.3571,21.9721],[-104.3436,21.9747],[-104.3359,21.9798],[-104.3269,21.9754],[-104.3249,21.9841],[-104.3198,21.9842],[-104.3151,21.9908],[-104.3081,21.9886],[-104.3023,21.9982],[-104.2941,22.0028],[-104.2894,21.9984],[-104.2814,21.9997],[-104.2754,21.9806],[-104.262,21.9769],[-104.2585,21.9722],[-104.246,21.9669],[-104.2413,21.97],[-104.2339,21.9692],[-104.2127,21.9829],[-104.1933,21.9854],[-104.1737,21.9709],[-104.1737,21.9634],[-104.1794,21.9456],[-104.1787,21.939],[-104.1884,21.9282],[-104.1888,21.919],[-104.2002,21.9095],[-104.201,21.8915],[-104.196,21.8795],[-104.1909,21.8772],[-104.1864,21.868],[-104.1788,21.8676],[-104.1756,21.8719],[-104.1722,21.8713],[-104.1796,21.8601],[-104.197,21.8508],[-104.1907,21.8511],[-104.1872,21.8379],[-104.1766,21.8322],[-104.1617,21.8098],[-104.1562,21.8108],[-104.1541,21.8076],[-104.1465,21.8064],[-104.1304,21.7905],[-104.1095,21.7873],[-104.0984,21.7928],[-104.0933,21.7912],[-104.0933,21.7846],[-104.084,21.7858],[-104.0799,21.7824],[-104.0762,21.7897],[-104.0662,21.7898],[-104.0653,21.7942],[-104.0566,21.7923],[-104.0523,21.7948],[-104.0107,21.7819],[-103.9891,21.7799],[-103.9846,21.7727],[-103.9809,21.7743],[-103.9778,21.7713],[-103.9581,21.772],[-103.9529,21.776],[-103.9511,21.7739],[-103.9445,21.7768],[-103.9235,21.7718],[-103.9186,21.7662],[-103.9196,21.7593],[-103.9161,21.7558],[-103.9201,21.7509],[-103.9317,21.7513],[-103.9318,21.7434],[-103.9028,21.7163],[-103.8988,21.7277],[-103.8959,21.7277],[-103.8966,21.7127],[-103.8877,21.6978],[-103.9033,21.6858],[-103.9124,21.669],[-103.9153,21.6708],[-103.9213,21.6684],[-103.9302,21.6419],[-103.9118,21.6298],[-103.9077,21.6187],[-103.9098,21.6148],[-103.9165,21.6183],[-103.9191,21.6162],[-103.9124,21.608],[-103.9232,21.5906],[-103.9192,21.582],[-103.904,21.5775],[-103.903,21.5744],[-103.8926,21.5741],[-103.8902,21.5716],[-103.8918,21.5625],[-103.8816,21.5521],[-103.8707,21.5487],[-103.8563,21.5524],[-103.854,21.5332],[-103.858,21.5313],[-103.8599,21.5247],[-103.8493,21.5145],[-103.8321,21.5134],[-103.8279,21.5053],[-103.8282,21.4982],[-103.8237,21.493],[-103.814,21.4945],[-103.8004,21.4872],[-103.8016,21.4898],[-103.793,21.4887],[-103.7911,21.4977],[-103.7741,21.4984],[-103.7782,21.4921],[-103.7703,21.4884],[-103.7691,21.483],[-103.7494,21.4745],[-103.7482,21.4709],[-103.7529,21.4661],[-103.7445,21.4541],[-103.742,21.4416],[-103.7284,21.4357],[-103.7209,21.4254],[-103.7313,21.4159],[-103.7513,21.4175],[-103.7564,21.4101],[-103.7644,21.4103],[-103.7569,21.3999],[-103.7661,21.3934],[-103.7673,21.3884],[-103.7498,21.3821],[-103.7413,21.3741],[-103.7471,21.3598],[-103.7443,21.3523],[-103.7523,21.3433],[-103.7494,21.3367],[-103.7556,21.3377],[-103.7574,21.3298],[-103.7642,21.3285],[-103.7725,21.3203],[-103.7761,21.3217],[-103.7806,21.3085],[-103.8036,21.3003],[-103.8078,21.2889],[-103.8147,21.2871],[-103.8203,21.281],[-103.8201,21.2765],[-103.825,21.2713],[-103.817,21.2561],[-103.8194,21.2484],[-103.84,21.2398],[-103.8619,21.2489],[-103.8741,21.2423],[-103.8752,21.2386],[-103.8826,21.2419],[-103.8923,21.2384],[-103.8984,21.2265],[-103.9031,21.2334],[-103.9179,21.231],[-103.9186,21.2456],[-103.9311,21.2625],[-103.9355,21.2542],[-103.9286,21.2498],[-103.924,21.2346],[-103.9459,21.238],[-103.9584,21.2528],[-103.9606,21.2512],[-103.9735,21.2563],[-103.9745,21.2518],[-103.9853,21.2492],[-103.9877,21.2442],[-104.0036,21.2365],[-104.0061,21.228],[-104.0166,21.2273],[-104.016,21.2075],[-104.0223,21.2051],[-104.0242,21.2126],[-104.0294,21.2087],[-104.0325,21.2029],[-104.0267,21.2005],[-104.028,21.1947],[-104.0353,21.196],[-104.0384,21.2044],[-104.0451,21.1996],[-104.0528,21.2054],[-104.0563,21.1941],[-104.0595,21.1939],[-104.0619,21.2001],[-104.0679,21.1982],[-104.0694,21.1945],[-104.0662,21.1905],[-104.0686,21.1868],[-104.0728,21.1902],[-104.081,21.1897],[-104.0809,21.2018],[-104.0857,21.2054],[-104.0885,21.2036],[-104.0888,21.1961],[-104.0942,21.1958],[-104.1,21.2009],[-104.1088,21.1956],[-104.1108,21.1886],[-104.124,21.1963],[-104.1286,21.191],[-104.1387,21.1887],[-104.1473,21.1916],[-104.1595,21.1846],[-104.1658,21.1889],[-104.2028,21.1928],[-104.2194,21.1766],[-104.2179,21.1727],[-104.2236,21.1692],[-104.2215,21.1658],[-104.2242,21.1605],[-104.2217,21.159],[-104.2249,21.1577],[-104.222,21.1533],[-104.2252,21.1512],[-104.2215,21.1407],[-104.219,21.1376],[-104.2151,21.1391],[-104.215,21.134],[-104.2106,21.1309],[-104.2109,21.1186],[-104.2148,21.1168],[-104.2121,21.1145],[-104.2155,21.114],[-104.2146,21.1077],[-104.2208,21.1014],[-104.2167,21.0858],[-104.2218,21.07],[-104.2291,21.0662],[-104.2348,21.0677],[-104.2392,21.0571],[-104.2384,21.0523],[-104.2311,21.0492],[-104.2252,21.0505],[-104.2266,21.0443],[-104.2358,21.0401],[-104.236,21.0315],[-104.2427,21.0273],[-104.2407,21.0217],[-104.2296,21.0163],[-104.2232,21.0013],[-104.225,20.9961],[-104.2339,20.9983],[-104.2385,20.9922],[-104.2331,20.9687],[-104.2186,20.9603],[-104.2013,20.9592],[-104.2046,20.952],[-104.208,20.9511],[-104.2066,20.9364],[-104.2211,20.9415],[-104.2288,20.9356],[-104.2365,20.9262],[-104.2465,20.9212],[-104.2489,20.9058],[-104.2679,20.8875],[-104.2909,20.8878],[-104.2791,20.8645],[-104.2907,20.8623],[-104.2902,20.849],[-104.2954,20.8455],[-104.3088,20.8468],[-104.3126,20.8404],[-104.3184,20.8386],[-104.3317,20.8427],[-104.3343,20.8467],[-104.3419,20.8442],[-104.35,20.8457],[-104.3618,20.8409],[-104.3571,20.8199],[-104.3603,20.8198],[-104.3641,20.8139],[-104.3504,20.8116],[-104.3759,20.7841],[-104.3752,20.7754],[-104.3582,20.7905],[-104.3464,20.7932],[-104.3453,20.7908],[-104.3358,20.7899],[-104.3283,20.7981],[-104.2976,20.7708],[-104.2915,20.7706],[-104.2899,20.7813],[-104.2829,20.7835],[-104.28,20.7689],[-104.2745,20.77],[-104.2599,20.7353],[-104.2476,20.7263],[-104.2466,20.7183],[-104.2418,20.7134],[-104.2481,20.6996],[-104.2433,20.6917],[-104.2532,20.6823],[-104.2458,20.6738],[-104.2469,20.6709],[-104.2365,20.6629],[-104.2553,20.6533],[-104.2604,20.6428],[-104.2469,20.6315],[-104.2538,20.6306],[-104.2547,20.6184],[-104.2519,20.6145],[-104.2554,20.6108],[-104.2515,20.6083],[-104.2536,20.6034],[-104.2745,20.6166],[-104.275,20.6222],[-104.282,20.629],[-104.2806,20.6464],[-104.2848,20.6529],[-104.2834,20.6576],[-104.288,20.6604],[-104.2846,20.6706],[-104.2884,20.6754],[-104.2885,20.6892],[-104.3056,20.6942],[-104.309,20.7037],[-104.3164,20.707],[-104.3185,20.7135],[-104.3229,20.714],[-104.3241,20.7175],[-104.3319,20.7167],[-104.3359,20.7215],[-104.3508,20.7253],[-104.3534,20.7359],[-104.359,20.7371],[-104.3637,20.7444],[-104.3775,20.7424],[-104.3789,20.7552],[-104.386,20.7632],[-104.3842,20.7665],[-104.395,20.7744],[-104.3966,20.7808],[-104.4125,20.79],[-104.4141,20.7938],[-104.4191,20.7962],[-104.4273,20.791],[-104.4357,20.8058],[-104.441,20.8077],[-104.4493,20.8035],[-104.4584,20.8065],[-104.463,20.8108],[-104.46,20.8131],[-104.4769,20.8196],[-104.4755,20.8227],[-104.4803,20.8233],[-104.4853,20.8333],[-104.4932,20.8388],[-104.4999,20.8382],[-104.5032,20.8418],[-104.5016,20.8454],[-104.5043,20.8468],[-104.5064,20.8608],[-104.5106,20.8597],[-104.514,20.8665],[-104.5195,20.8692],[-104.5244,20.8858],[-104.5346,20.884],[-104.5357,20.8959],[-104.5433,20.8976],[-104.5447,20.9011],[-104.5429,20.9119],[-104.5557,20.9181],[-104.5569,20.9242],[-104.5693,20.9309],[-104.5763,20.9307],[-104.5782,20.934],[-104.5907,20.9346],[-104.5915,20.9315],[-104.601,20.9314],[-104.6118,20.9232],[-104.6227,20.9263],[-104.6285,20.9239],[-104.6381,20.9341],[-104.6581,20.9332],[-104.6621,20.9387],[-104.6614,20.944],[-104.6691,20.9413],[-104.681,20.9438],[-104.6827,20.9492],[-104.6787,20.9547],[-104.6811,20.9607],[-104.7057,20.9669],[-104.7089,20.9744],[-104.7162,20.9749],[-104.7158,20.9805],[-104.7294,20.9832],[-104.7251,21.0048],[-104.73,21.0123],[-104.7392,21.0061],[-104.7525,21.0123],[-104.7717,21.0086],[-104.7751,21.0175],[-104.7825,21.0234],[-104.7902,21.015],[-104.8032,21.0165],[-104.8102,21.012],[-104.8282,21.0182],[-104.8325,21.0141],[-104.8381,21.02],[-104.8412,21.0067],[-104.8537,21.005],[-104.8513,21.0002],[-104.8579,20.9944],[-104.8669,20.9952],[-104.8735,20.9824],[-104.8808,20.9809],[-104.8827,20.9737],[-104.8895,20.9738],[-104.8934,20.9671],[-104.9006,20.9627],[-104.9005,20.9463],[-104.9065,20.9422],[-104.9134,20.9442],[-104.9283,20.9395],[-104.9343,20.9345],[-104.9412,20.9351],[-104.9532,20.9301],[-104.9639,20.9191],[-104.9672,20.9095],[-104.9819,20.9147],[-104.9904,20.9216],[-104.9974,20.9195],[-105.0002,20.9117],[-105.0034,20.9109],[-105.0022,20.9159],[-105.0063,20.9225],[-105.0202,20.9181],[-105.0212,20.9115],[-105.0316,20.9092],[-105.0391,20.9131],[-105.0363,20.9249],[-105.0468,20.9343],[-105.0502,20.9317],[-105.0682,20.9318],[-105.0728,20.928],[-105.0803,20.9315],[-105.0855,20.9239],[-105.0994,20.9188],[-105.0974,20.9159],[-105.1045,20.9123],[-105.1045,20.9078],[-105.1122,20.9048],[-105.112,20.9004],[-105.1172,20.9008],[-105.1171,20.897],[-105.1281,20.8892],[-105.1425,20.8865],[-105.1391,20.8819],[-105.1412,20.8756],[-105.1482,20.8687],[-105.153,20.8689],[-105.1527,20.8619],[-105.1606,20.8574],[-105.1554,20.8531],[-105.1628,20.8487],[-105.1612,20.84],[-105.1638,20.8343],[-105.1616,20.8311],[-105.1651,20.8289],[-105.1657,20.8206],[-105.1713,20.8211],[-105.1739,20.8139],[-105.1711,20.8112],[-105.1728,20.806],[-105.1676,20.8037],[-105.171,20.7961],[-105.1623,20.7925],[-105.1734,20.7677],[-105.197,20.7772],[-105.2058,20.7641],[-105.2114,20.7659],[-105.2342,20.7476],[-105.2399,20.7474],[-105.2367,20.7278],[-105.2387,20.7249],[-105.2462,20.725],[-105.2436,20.7187],[-105.2467,20.713],[-105.2426,20.7042],[-105.2558,20.7029],[-105.2564,20.6945],[-105.2627,20.6892],[-105.2613,20.6798],[-105.2657,20.6789],[-105.2724,20.6838],[-105.2789,20.6813],[-105.2784,20.6759],[-105.2742,20.6744],[-105.281,20.672],[-105.2451,20.6533],[-105.2413,20.6432],[-105.2336,20.6351],[-105.233,20.6159],[-105.2441,20.5922],[-105.245,20.5817],[-105.2584,20.5571],[-105.2873,20.5446],[-105.2918,20.5325],[-105.2967,20.5335],[-105.2966,20.5307],[-105.3198,20.5189],[-105.3161,20.5121],[-105.3249,20.5143],[-105.3446,20.5072],[-105.3538,20.5083],[-105.37,20.5041],[-105.4001,20.5087],[-105.4251,20.4998],[-105.4424,20.5011],[-105.4458,20.4985],[-105.4425,20.4918],[-105.4458,20.4884],[-105.4658,20.4965],[-105.4949,20.4894],[-105.5179,20.4931],[-105.5404,20.4892],[-105.5446,20.486],[-105.556,20.4879],[-105.5661,20.4824],[-105.5741,20.4839],[-105.5923,20.4736],[-105.6043,20.4755],[-105.609,20.471],[-105.6154,20.4708],[-105.6354,20.4459],[-105.6431,20.4421],[-105.6481,20.4451],[-105.6548,20.4275],[-105.6713,20.4259],[-105.6704,20.4145],[-105.6742,20.4128],[-105.6724,20.4074],[-105.678,20.4082],[-105.6801,20.412],[-105.6876,20.412],[-105.6944,20.4097]]],[[[-105.2926,20.5457],[-105.2923,20.5444],[-105.2912,20.5453],[-105.2926,20.5457]]],[[[-105.2925,20.546],[-105.2922,20.5459],[-105.292,20.5461],[-105.2925,20.546]]],[[[-105.2899,20.5449],[-105.2902,20.5444],[-105.2899,20.5444],[-105.2899,20.5449]]],[[[-105.288,20.5448],[-105.2881,20.5447],[-105.288,20.5447],[-105.288,20.5448]]],[[[-105.2868,20.5464],[-105.2871,20.5461],[-105.2866,20.5463],[-105.2868,20.5464]]],[[[-105.1473,19.579],[-105.1476,19.5784],[-105.1466,19.5787],[-105.1473,19.579]]],[[[-105.1463,19.5816],[-105.146,19.5795],[-105.1451,19.5807],[-105.1463,19.5816]]],[[[-105.1348,19.575],[-105.136,19.5734],[-105.1346,19.5744],[-105.1348,19.575]]],[[[-105.1329,19.5741],[-105.133,19.5733],[-105.1324,19.5739],[-105.1329,19.5741]]],[[[-105.131,19.5738],[-105.1305,19.5731],[-105.1306,19.5739],[-105.131,19.5738]]],[[[-105.1174,19.5561],[-105.112,19.5571],[-105.1102,19.5614],[-105.1136,19.5615],[-105.1174,19.5561]]],[[[-105.1154,19.5489],[-105.1142,19.5475],[-105.1131,19.5489],[-105.1154,19.5489]]],[[[-105.1134,19.5459],[-105.1081,19.5445],[-105.1063,19.5503],[-105.1093,19.5521],[-105.1134,19.5459]]],[[[-105.1069,19.5564],[-105.1076,19.5556],[-105.1064,19.5561],[-105.1069,19.5564]]],[[[-105.0959,19.5259],[-105.092,19.5222],[-105.0904,19.5238],[-105.0934,19.5267],[-105.0959,19.5259]]],[[[-105.0942,19.5405],[-105.0934,19.5379],[-105.0921,19.5393],[-105.0942,19.5405]]],[[[-105.0939,19.5305],[-105.0941,19.5291],[-105.0931,19.5303],[-105.0939,19.5305]]],[[[-105.0924,19.5362],[-105.0921,19.535],[-105.092,19.5363],[-105.0924,19.5362]]],[[[-105.0888,19.5335],[-105.0889,19.5316],[-105.0877,19.5317],[-105.0888,19.5335]]],[[[-105.0889,19.5361],[-105.0881,19.5339],[-105.0871,19.5348],[-105.0889,19.5361]]],[[[-105.0854,19.5226],[-105.087,19.5213],[-105.0854,19.5211],[-105.0854,19.5226]]],[[[-105.0851,19.5147],[-105.0859,19.5138],[-105.0851,19.5138],[-105.0851,19.5147]]],[[[-105.0661,19.4791],[-105.0675,19.4771],[-105.064,19.4776],[-105.0661,19.4791]]],[[[-105.0664,19.4763],[-105.0642,19.4764],[-105.0631,19.4756],[-105.0636,19.4771],[-105.0664,19.4763]]],[[[-105.0362,19.4412],[-105.0352,19.4397],[-105.035,19.4412],[-105.0362,19.4412]]],[[[-105.0355,19.391],[-105.0343,19.389],[-105.0338,19.3904],[-105.0355,19.391]]],[[[-104.9595,19.3076],[-104.9601,19.3066],[-104.9599,19.3066],[-104.9595,19.3076]]],[[[-104.9554,19.3109],[-104.9562,19.31],[-104.9556,19.31],[-104.9554,19.3109]]],[[[-104.952,19.3157],[-104.9515,19.3147],[-104.9514,19.3157],[-104.952,19.3157]]],[[[-104.878,19.2739],[-104.8763,19.2719],[-104.8752,19.2733],[-104.878,19.2739]]],[[[-104.8171,19.2221],[-104.8133,19.2262],[-104.814,19.2317],[-104.8149,19.2315],[-104.8171,19.2221]]],[[[-104.8136,19.2346],[-104.8121,19.2329],[-104.8129,19.2346],[-104.8136,19.2346]]]]}}]}